start=new Date('2023-03-24T00:00:00.000Z').valueOf();
sats=[{"NORAD_CAT_ID":"45753","RA_OF_ASC_NODE":"36.1336","FILE":"3868623","OBJECT_ID":"2020-038Z","APOAPSIS":"547.905","SITE":"AFETR","INCLINATION":"53.0567","MEAN_MOTION_DDOT":"0.0000000000000","ARG_OF_PERICENTER":"95.4832","ELEMENT_SET_NO":"999","GP_ID":"228711956","PERIAPSIS":"546.358","LAUNCH_DATE":"2020-06-13","TLE_LINE2":"2 45753  53.0567  36.1336 0001117  95.4832 264.6285 15.06426849154430","OBJECT_TYPE":"PAYLOAD","ECCENTRICITY":"0.00011170","REF_FRAME":"TEME","EPOCH":"2023-03-23T04:38:32.520480","COUNTRY_CODE":"US","MEAN_ELEMENT_THEORY":"SGP4","MEAN_ANOMALY":"264.6285","MEAN_MOTION":"15.06426849","CLASSIFICATION_TYPE":"U","DECAY_DATE":null,"OBJECT_NAME":"STARLINK-1476","BSTAR":"0.00165830000000","PERIOD":"95.590","TIME_SYSTEM":"UTC","RCS_SIZE":"LARGE","EPHEMERIS_TYPE":"0","MEAN_MOTION_DOT":"0.00024523","CENTER_NAME":"EARTH","REV_AT_EPOCH":"15443","TLE_LINE1":"1 45753U 20038Z   23082.19343195  .00024523  00000-0  16583-2 0  9998","SEMIMAJOR_AXIS":"6925.266"},{"SEMIMAJOR_AXIS":"6925.353","TLE_LINE1":"1 45754U 20038AA  23082.66155312  .00005261  00000-0  37184-3 0  9992","REV_AT_EPOCH":"15435","CENTER_NAME":"EARTH","MEAN_MOTION_DOT":"0.00005261","EPHEMERIS_TYPE":"0","RCS_SIZE":"LARGE","TIME_SYSTEM":"UTC","PERIOD":"95.592","DECAY_DATE":null,"OBJECT_NAME":"STARLINK-1477","BSTAR":"0.00037184000000","CLASSIFICATION_TYPE":"U","MEAN_MOTION":"15.06398713","MEAN_ELEMENT_THEORY":"SGP4","MEAN_ANOMALY":"267.9730","COUNTRY_CODE":"US","REF_FRAME":"TEME","EPOCH":"2023-03-23T15:52:38.189568","ECCENTRICITY":"0.00011020","TLE_LINE2":"2 45754  53.0550  34.0284 0001102  92.1386 267.9730 15.06398713154354","OBJECT_TYPE":"PAYLOAD","LAUNCH_DATE":"2020-06-13","GP_ID":"228712476","PERIAPSIS":"546.454","ARG_OF_PERICENTER":"92.1386","ELEMENT_SET_NO":"999","INCLINATION":"53.0550","MEAN_MOTION_DDOT":"0.0000000000000","OBJECT_ID":"2020-038AA","FILE":"3868602","APOAPSIS":"547.981","SITE":"AFETR","NORAD_CAT_ID":"45754","RA_OF_ASC_NODE":"34.0284"},{"TLE_LINE2":"2 45755  53.0560  36.3313 0001210  90.4398 269.6729 15.06440087153301","OBJECT_TYPE":"PAYLOAD","ECCENTRICITY":"0.00012100","REF_FRAME":"TEME","EPOCH":"2023-03-23T03:34:50.501568","MEAN_ELEMENT_THEORY":"SGP4","MEAN_ANOMALY":"269.6729","COUNTRY_CODE":"US","NORAD_CAT_ID":"45755","RA_OF_ASC_NODE":"36.3313","INCLINATION":"53.0560","MEAN_MOTION_DDOT":"0.0000000000000","OBJECT_ID":"2020-038AB","FILE":"3868494","APOAPSIS":"547.929","SITE":"AFETR","GP_ID":"228702140","PERIAPSIS":"546.253","ARG_OF_PERICENTER":"90.4398","ELEMENT_SET_NO":"999","LAUNCH_DATE":"2020-06-13","MEAN_MOTION_DOT":"0.00032656","EPHEMERIS_TYPE":"0","RCS_SIZE":"LARGE","CENTER_NAME":"EARTH","REV_AT_EPOCH":"15330","TLE_LINE1":"1 45755U 20038AB  23082.14919562  .00032656  00000-0  21987-2 0  9992","SEMIMAJOR_AXIS":"6925.226","MEAN_MOTION":"15.06440087","CLASSIFICATION_TYPE":"U","DECAY_DATE":null,"BSTAR":"0.00219870000000","OBJECT_NAME":"STARLINK-1478","TIME_SYSTEM":"UTC","PERIOD":"95.590"},{"EPHEMERIS_TYPE":"0","MEAN_MOTION_DOT":"0.00031072","RCS_SIZE":"LARGE","CENTER_NAME":"EARTH","REV_AT_EPOCH":"15330","SEMIMAJOR_AXIS":"6925.212","TLE_LINE1":"1 45756U 20038AC  23082.14456133  .00031072  00000-0  20932-2 0  9993","MEAN_MOTION":"15.06444701","CLASSIFICATION_TYPE":"U","OBJECT_NAME":"STARLINK-1484","BSTAR":"0.00209320000000","DECAY_DATE":null,"TIME_SYSTEM":"UTC","PERIOD":"95.589","OBJECT_TYPE":"PAYLOAD","TLE_LINE2":"2 45756  53.0564  36.3390 0001163  93.4078 266.7044 15.06444701153301","ECCENTRICITY":"0.00011630","EPOCH":"2023-03-23T03:28:10.098912","REF_FRAME":"TEME","MEAN_ELEMENT_THEORY":"SGP4","MEAN_ANOMALY":"266.7044","COUNTRY_CODE":"US","NORAD_CAT_ID":"45756","RA_OF_ASC_NODE":"36.3390","MEAN_MOTION_DDOT":"0.0000000000000","INCLINATION":"53.0564","SITE":"AFETR","APOAPSIS":"547.882","FILE":"3868494","OBJECT_ID":"2020-038AC","PERIAPSIS":"546.271","GP_ID":"228703388","ELEMENT_SET_NO":"999","ARG_OF_PERICENTER":"93.4078","LAUNCH_DATE":"2020-06-13"},{"ARG_OF_PERICENTER":"114.6282","ELEMENT_SET_NO":"999","GP_ID":"228712489","PERIAPSIS":"530.968","LAUNCH_DATE":"2020-06-13","NORAD_CAT_ID":"45757","RA_OF_ASC_NODE":"32.8773","OBJECT_ID":"2020-038AD","FILE":"3868604","APOAPSIS":"533.411","SITE":"AFETR","INCLINATION":"53.0543","MEAN_MOTION_DDOT":"0.0000000000000","REF_FRAME":"TEME","EPOCH":"2023-03-23T15:23:59.945856","COUNTRY_CODE":"US","MEAN_ELEMENT_THEORY":"SGP4","MEAN_ANOMALY":"245.4893","TLE_LINE2":"2 45757  53.0543  32.8773 0001768 114.6282 245.4893 15.11315425154515","OBJECT_TYPE":"PAYLOAD","ECCENTRICITY":"0.00017680","DECAY_DATE":null,"OBJECT_NAME":"STARLINK-1486","BSTAR":"0.00238180000000","PERIOD":"95.281","TIME_SYSTEM":"UTC","MEAN_MOTION":"15.11315425","CLASSIFICATION_TYPE":"U","REV_AT_EPOCH":"15451","TLE_LINE1":"1 45757U 20038AD  23082.64166604  .00040523  00000-0  23818-2 0  9997","SEMIMAJOR_AXIS":"6910.324","RCS_SIZE":"LARGE","MEAN_MOTION_DOT":"0.00040523","EPHEMERIS_TYPE":"0","CENTER_NAME":"EARTH"},{"MEAN_ELEMENT_THEORY":"SGP4","MEAN_ANOMALY":"297.0301","COUNTRY_CODE":"US","EPOCH":"2023-03-23T03:25:07.673088","REF_FRAME":"TEME","ECCENTRICITY":"0.00014450","OBJECT_TYPE":"PAYLOAD","TLE_LINE2":"2 45758  53.0567  34.8347 0001445  63.0838 297.0301 15.11878546153320","LAUNCH_DATE":"2020-06-13","PERIAPSIS":"529.475","GP_ID":"228702390","ELEMENT_SET_NO":"999","ARG_OF_PERICENTER":"63.0838","MEAN_MOTION_DDOT":"0.0000000000000","INCLINATION":"53.0567","SITE":"AFETR","FILE":"3868494","OBJECT_ID":"2020-038AE","APOAPSIS":"531.472","RA_OF_ASC_NODE":"34.8347","NORAD_CAT_ID":"45758","SEMIMAJOR_AXIS":"6908.608","TLE_LINE1":"1 45758U 20038AE  23082.14244992  .00042580  00000-0  24624-2 0  9991","REV_AT_EPOCH":"15332","CENTER_NAME":"EARTH","EPHEMERIS_TYPE":"0","MEAN_MOTION_DOT":"0.00042580","RCS_SIZE":"LARGE","TIME_SYSTEM":"UTC","PERIOD":"95.246","BSTAR":"0.00246240000000","OBJECT_NAME":"STARLINK-1487","DECAY_DATE":null,"CLASSIFICATION_TYPE":"U","MEAN_MOTION":"15.11878546"},{"TLE_LINE1":"1 45759U 20038AF  23082.13813234  .00029756  00000-0  20056-2 0  9997","SEMIMAJOR_AXIS":"6925.206","REV_AT_EPOCH":"15423","CENTER_NAME":"EARTH","MEAN_MOTION_DOT":"0.00029756","EPHEMERIS_TYPE":"0","RCS_SIZE":"LARGE","TIME_SYSTEM":"UTC","PERIOD":"95.589","BSTAR":"0.00200560000000","OBJECT_NAME":"STARLINK-1493","DECAY_DATE":null,"CLASSIFICATION_TYPE":"U","MEAN_MOTION":"15.06446393","MEAN_ELEMENT_THEORY":"SGP4","MEAN_ANOMALY":"264.8982","COUNTRY_CODE":"US","EPOCH":"2023-03-23T03:18:54.634176","REF_FRAME":"TEME","ECCENTRICITY":"0.00008690","OBJECT_TYPE":"PAYLOAD","TLE_LINE2":"2 45759  53.0534  36.3773 0000869  95.2106 264.8982 15.06446393154232","LAUNCH_DATE":"2020-06-13","PERIAPSIS":"546.470","GP_ID":"228714377","ELEMENT_SET_NO":"999","ARG_OF_PERICENTER":"95.2106","MEAN_MOTION_DDOT":"0.0000000000000","INCLINATION":"53.0534","SITE":"AFETR","APOAPSIS":"547.673","FILE":"3868672","OBJECT_ID":"2020-038AF","NORAD_CAT_ID":"45759","RA_OF_ASC_NODE":"36.3773"},{"TLE_LINE2":"2 45760  53.0566  36.3651 0001269  97.2817 262.8316 15.06436298153310","OBJECT_TYPE":"PAYLOAD","ECCENTRICITY":"0.00012690","REF_FRAME":"TEME","EPOCH":"2023-03-23T03:24:14.129280","MEAN_ANOMALY":"262.8316","MEAN_ELEMENT_THEORY":"SGP4","COUNTRY_CODE":"US","RA_OF_ASC_NODE":"36.3651","NORAD_CAT_ID":"45760","INCLINATION":"53.0566","MEAN_MOTION_DDOT":"0.0000000000000","FILE":"3868494","OBJECT_ID":"2020-038AG","APOAPSIS":"547.981","SITE":"AFETR","GP_ID":"228702891","PERIAPSIS":"546.223","ARG_OF_PERICENTER":"97.2817","ELEMENT_SET_NO":"999","LAUNCH_DATE":"2020-06-13","MEAN_MOTION_DOT":"0.00033443","EPHEMERIS_TYPE":"0","RCS_SIZE":"LARGE","CENTER_NAME":"EARTH","REV_AT_EPOCH":"15331","SEMIMAJOR_AXIS":"6925.237","TLE_LINE1":"1 45760U 20038AG  23082.14183020  .00033443  00000-0  22512-2 0  9990","MEAN_MOTION":"15.06436298","CLASSIFICATION_TYPE":"U","DECAY_DATE":null,"OBJECT_NAME":"STARLINK-1494","BSTAR":"0.00225120000000","TIME_SYSTEM":"UTC","PERIOD":"95.590"},{"CLASSIFICATION_TYPE":"U","MEAN_MOTION":"15.19464227","TIME_SYSTEM":"UTC","PERIOD":"94.770","DECAY_DATE":null,"BSTAR":"0.00056060000000","OBJECT_NAME":"STARLINK-1499","CENTER_NAME":"EARTH","EPHEMERIS_TYPE":"0","MEAN_MOTION_DOT":"0.00011737","RCS_SIZE":"LARGE","TLE_LINE1":"1 45762U 20038AJ  23082.22598003  .00011737  00000-0  56060-3 0  9990","SEMIMAJOR_AXIS":"6885.596","REV_AT_EPOCH":"15349","INCLINATION":"53.0532","MEAN_MOTION_DDOT":"0.0000000000000","FILE":"3868494","OBJECT_ID":"2020-038AJ","APOAPSIS":"510.339","SITE":"AFETR","NORAD_CAT_ID":"45762","RA_OF_ASC_NODE":"24.6781","LAUNCH_DATE":"2020-06-13","GP_ID":"228703626","PERIAPSIS":"504.583","ARG_OF_PERICENTER":"94.2842","ELEMENT_SET_NO":"999","ECCENTRICITY":"0.00041800","TLE_LINE2":"2 45762  53.0532  24.6781 0004180  94.2842 265.8630 15.19464227153497","OBJECT_TYPE":"PAYLOAD","MEAN_ANOMALY":"265.8630","MEAN_ELEMENT_THEORY":"SGP4","COUNTRY_CODE":"US","REF_FRAME":"TEME","EPOCH":"2023-03-23T05:25:24.674592"},{"TLE_LINE1":"1 45764U 20038AL  23082.63574403 -.00008345  00000-0 -54164-3 0  9991","SEMIMAJOR_AXIS":"6925.278","REV_AT_EPOCH":"15431","CENTER_NAME":"EARTH","RCS_SIZE":"LARGE","EPHEMERIS_TYPE":"0","MEAN_MOTION_DOT":"-0.00008345","PERIOD":"95.591","TIME_SYSTEM":"UTC","DECAY_DATE":null,"OBJECT_NAME":"STARLINK-1502","BSTAR":"-0.00054164000000","CLASSIFICATION_TYPE":"U","MEAN_MOTION":"15.06423016","COUNTRY_CODE":"US","MEAN_ANOMALY":"255.8632","MEAN_ELEMENT_THEORY":"SGP4","REF_FRAME":"TEME","EPOCH":"2023-03-23T15:15:28.284192","ECCENTRICITY":"0.00020310","TLE_LINE2":"2 45764  53.0541  34.1444 0002031 104.2582 255.8632 15.06423016154317","OBJECT_TYPE":"PAYLOAD","LAUNCH_DATE":"2020-06-13","ARG_OF_PERICENTER":"104.2582","ELEMENT_SET_NO":"999","GP_ID":"228711639","PERIAPSIS":"545.736","OBJECT_ID":"2020-038AL","FILE":"3868581","APOAPSIS":"548.550","SITE":"AFETR","INCLINATION":"53.0541","MEAN_MOTION_DDOT":"0.0000000000000","NORAD_CAT_ID":"45764","RA_OF_ASC_NODE":"34.1444"}];
